{
    "links": {
        "self": "http://www.neowsapp.com/rest/v1/neo/3831070?api_key=iIulBulltgU6a56xZRHN4H3l9WmuAYTsLGpBGhQ2"
    },
    "id": "3831070",
    "neo_reference_id": "3831070",
    "name": "(2018 SJ3)",
    "designation": "2018 SJ3",
    "nasa_jpl_url": "http://ssd.jpl.nasa.gov/sbdb.cgi?sstr=3831070",
    "absolute_magnitude_h": 27.2,
    "estimated_diameter": {
        "kilometers": {
            "estimated_diameter_min": 0.0096506147,
            "estimated_diameter_max": 0.0215794305
        },
        "meters": {
            "estimated_diameter_min": 9.6506146958,
            "estimated_diameter_max": 21.5794304844
        },
        "miles": {
            "estimated_diameter_min": 0.0059966121,
            "estimated_diameter_max": 0.0134088323
        },
        "feet": {
            "estimated_diameter_min": 31.6621227185,
            "estimated_diameter_max": 70.7986587106
        }
    },
    "is_potentially_hazardous_asteroid": false,
    "close_approach_data": [
        {
            "close_approach_date": "2018-09-24",
            "close_approach_date_full": "2018-Sep-24 00:35",
            "epoch_date_close_approach": 1537749300000,
            "relative_velocity": {
                "kilometers_per_second": "3.6615493244",
                "kilometers_per_hour": "13181.5775677752",
                "miles_per_hour": "8190.5196837101"
            },
            "miss_distance": {
                "astronomical": "0.039247773",
                "lunar": "15.267383697",
                "kilometers": "5871383.24304351",
                "miles": "3648308.372920038"
            },
            "orbiting_body": "Earth"
        }
    ],
    "orbital_data": {
        "orbit_id": "5",
        "orbit_determination_date": "2020-09-11 07:40:33",
        "first_observation_date": "2018-09-30",
        "last_observation_date": "2018-10-19",
        "data_arc_in_days": 19,
        "observations_used": 27,
        "orbit_uncertainty": "8",
        "minimum_orbit_intersection": ".0364706",
        "jupiter_tisserand_invariant": "4.619",
        "epoch_osculation": "2458397.5",
        "eccentricity": ".2792304370369024",
        "semi_major_axis": "1.442259407076299",
        "inclination": "1.502818212158412",
        "ascending_node_longitude": "199.0766867790306",
        "orbital_period": "632.6499780827522",
        "perihelion_distance": "1.0395366825178",
        "perihelion_argument": "157.9164399017222",
        "aphelion_distance": "1.844982131634797",
        "perihelion_time": "2458382.634156614217",
        "mean_anomaly": "8.459185654443923",
        "mean_motion": ".5690350311731317",
        "equinox": "J2000",
        "orbit_class": {
            "orbit_class_type": "AMO",
            "orbit_class_description": "Near-Earth asteroid orbits similar to that of 1221 Amor",
            "orbit_class_range": "1.017 AU < q (perihelion) < 1.3 AU"
        }
    },
    "is_sentry_object": false
}